OBJECT_NAME,OBJECT_ID,EPOCH,MEAN_MOTION,ECCENTRICITY,INCLINATION,RA_OF_ASC_NODE,ARG_OF_PERICENTER,MEAN_ANOMALY,EPHEMERIS_TYPE,CLASSIFICATION_TYPE,NORAD_CAT_ID,ELEMENT_SET_NO,REV_AT_EPOCH,BSTAR,MEAN_MOTION_DOT,MEAN_MOTION_DDOT
TIANMU-1 20,2023-208B,2026-06-22T19:24:04.796640,15.32834731,.00056732,97.4446,290.7784,309.9852,50.0891,0,U,58661,999,13828,.20052915E-3,.6281E-4,0
TIANMU-1 21,2023-208C,2026-06-22T18:55:04.708416,15.35160126,.00057269,97.4505,293.4631,299.1608,60.9061,0,U,58662,999,13842,.21537301E-3,.7271E-4,0
TIANMU-1 22,2023-208D,2026-06-22T19:46:31.580832,15.31123343,.0002682,97.4500,290.0842,341.1686,18.9455,0,U,58663,999,13819,.19218632E-3,.57E-4,0
TIANMU-1 15,2024-004A,2026-06-22T20:45:43.447680,15.27071209,.00061344,97.4674,0.0567,341.4316,18.6698,0,U,58700,999,13664,.15986999E-3,.4172E-4,0
TIANMU-1 16,2024-004B,2026-06-22T20:31:41.894400,15.26796060,.00052115,97.4622,359.2777,347.3301,12.7806,0,U,58701,999,13664,.16528104E-3,.4279E-4,0
TIANMU-1 17,2024-004C,2026-06-22T20:10:45.398208,15.26795151,.00049248,97.4650,359.7501,354.4397,5.6786,0,U,58702,999,13663,.16018972E-3,.4145E-4,0
TIANMU-1 18,2024-004D,2026-06-22T19:35:23.440128,15.27051798,.00034634,97.4667,359.9844,355.8691,4.2519,0,U,58703,999,13663,.15826582E-3,.4126E-4,0
INSAT-3DS,2024-033A,2026-06-22T19:08:38.463360,1.00271053,.00012902,0.0524,104.7309,336.3989,199.0920,0,U,58990,999,4712,0,-.153E-5,0
METEOR-M2 4,2024-039A,2026-06-22T19:27:32.751072,14.22430011,.00075889,98.7013,133.0382,145.6698,214.4972,0,U,59051,999,12006,.21262306E-4,.4E-7,0
GOES 19,2024-119A,2026-06-22T19:13:27.020352,1.00272226,.00003638,0.0387,153.9180,358.0484,332.1787,0,U,60133,999,702,0,-.245E-5,0
MTG-S1,2025-143A,2026-06-22T16:09:08.896896,1.00400359,.00006975,0.5985,340.1911,293.9524,237.5585,0,U,64723,999,347,0,.1E-6,0
METOP-SGA1,2025-172A,2026-06-16T03:40:47.624736,14.21509720,.0000902,98.6644,226.8998,93.8213,266.3067,0,U,65159,999,4364,.41999845E-4,.49E-6,0
FENGYUN 3H,2025-219A,2026-06-22T11:12:24.845472,14.19921206,.00015521,98.6768,114.1334,73.1974,286.9373,0,U,65815,999,3813,.31358824E-4,.23E-6,0
