TIANMU-1 20             
1 58661U 23208B   26173.80838885  .00006281  00000+0  20053-3 0  9997
2 58661  97.4446 290.7784 0005673 309.9852  50.0891 15.32834731138288
TIANMU-1 21             
1 58662U 23208C   26173.78824894  .00007271  00000+0  21537-3 0  9998
2 58662  97.4505 293.4631 0005726 299.1608  60.9061 15.35160126138422
TIANMU-1 22             
1 58663U 23208D   26173.82397663  .00005700  00000+0  19219-3 0  9992
2 58663  97.4500 290.0842 0002682 341.1686  18.9455 15.31123343138197
TIANMU-1 15             
1 58700U 24004A   26173.86508620  .00004172  00000+0  15987-3 0  9990
2 58700  97.4674   0.0567 0006134 341.4316  18.6698 15.27071209136645
TIANMU-1 16             
1 58701U 24004B   26173.85534600  .00004279  00000+0  16528-3 0  9997
2 58701  97.4622 359.2777 0005211 347.3301  12.7806 15.26796060136649
TIANMU-1 17             
1 58702U 24004C   26173.84080322  .00004145  00000+0  16019-3 0  9991
2 58702  97.4650 359.7501 0004924 354.4397   5.6786 15.26795151136632
TIANMU-1 18             
1 58703U 24004D   26173.81624352  .00004126  00000+0  15827-3 0  9991
2 58703  97.4667 359.9844 0003463 355.8691   4.2519 15.27051798136634
INSAT-3DS               
1 58990U 24033A   26173.79766740 -.00000153  00000+0  00000+0 0  9996
2 58990   0.0524 104.7309 0001290 336.3989 199.0920  1.00271053 47124
METEOR-M2 4             
1 59051U 24039A   26173.81079573  .00000004  00000+0  21262-4 0  9997
2 59051  98.7013 133.0382 0007588 145.6698 214.4972 14.22430011120063
GOES 19                 
1 60133U 24119A   26173.80100718 -.00000245  00000+0  00000+0 0  9994
2 60133   0.0387 153.9180 0000363 358.0484 332.1787  1.00272226  7026
MTG-S1                  
1 64723U 25143A   26173.67301964  .00000010  00000+0  00000+0 0  9991
2 64723   0.5985 340.1911 0000697 293.9524 237.5585  1.00400359  3477
METOP-SGA1              
1 65159U 25172A   26167.15332899  .00000049  00000+0  42000-4 0  9997
2 65159  98.6644 226.8998 0000902  93.8213 266.3067 14.21509720 43644
FENGYUN 3H              
1 65815U 25219A   26173.46695423  .00000023  00000+0  31359-4 0  9991
2 65815  98.6768 114.1334 0001552  73.1974 286.9373 14.19921206 38130
